NORAD_CAT_ID,OBJECT_NAME,OBJECT_TYPE,EPOCH,MEAN_MOTION,ECCENTRICITY,INCLINATION,RA_OF_ASC_NODE,ARG_OF_PERICENTER,MEAN_ANOMALY,BSTAR,MEAN_MOTION_DOT,MEAN_MOTION_DDOT,TLE_LINE0,TLE_LINE1,TLE_LINE2,SEMIMAJOR_AXIS,PERIOD,APOGEE,PERIGEE,DECAYED
55650.0,STARLINK-5494,PAYLOAD,2024-03-13 11:41:42,14.98330746,0.0002968,69.9999,215.4537,269.9522,90.1297,-2.0292e-05,-3.35e-06,0.0,0 STARLINK-5494,1 55650U 23021Y   24073.48729595 -.00000335  00000-0 -20292-4 0  9996,2 55650  69.9999 215.4537 0002968 269.9522  90.1297 14.98330746 59716,6950.191,96.107,574.118,569.993,0.0
55650.0,STARLINK-5494,PAYLOAD,2024-03-13 19:42:22,14.98332686,0.0002943,70.0003,214.613,269.6044,90.4778,1.4495e-05,8e-07,0.0,0 STARLINK-5494,1 55650U 23021Y   24073.82109341  .00000080  00000-0  14495-4 0  9998,2 55650  70.0003 214.6130 0002943 269.6044  90.4778 14.98332686 60066,6950.185,96.107,574.095,570.004,0.0
55650.0,STARLINK-5494,PAYLOAD,2024-03-14 11:43:43,14.98327863,0.0002843,70.0004,212.9302,268.8055,91.2779,2.1074e-05,1.58e-06,0.0,0 STARLINK-5494,1 55650U 23021Y   24074.48869588  .00000158  00000-0  21074-4 0  9994,2 55650  70.0004 212.9302 0002843 268.8055  91.2779 14.98327863 59868,6950.199,96.107,574.04,570.089,0.0
55650.0,STARLINK-5494,PAYLOAD,2024-03-14 19:44:23,14.98331081,0.000286,70.0002,212.0882,270.0679,90.0152,5.0768e-05,5.13e-06,0.0,0 STARLINK-5494,1 55650U 23021Y   24074.82249322  .00000513  00000-0  50768-4 0  9997,2 55650  70.0002 212.0882 0002860 270.0679  90.0152 14.98331081 60216,6950.19,96.107,574.042,570.067,0.0
55650.0,STARLINK-5494,PAYLOAD,2024-03-15 11:45:44,14.98332154,0.0002869,70.0001,210.4054,267.0465,93.0366,-2.9862e-06,-1.29e-06,0.0,0 STARLINK-5494,1 55650U 23021Y   24075.49009317 -.00000129  00000-0 -29862-5 0  9996,2 55650  70.0001 210.4054 0002869 267.0465  93.0366 14.98332154 60016,6950.186,96.107,574.045,570.057,0.0
55650.0,STARLINK-5494,PAYLOAD,2024-03-16 11:47:45,14.98326642,0.0002936,69.9994,207.8786,261.9177,98.1649,-4.0399e-05,-5.75e-06,0.0,0 STARLINK-5494,1 55650U 23021Y   24076.49149776 -.00000575  00000-0 -40399-4 0  9993,2 55650  69.9994 207.8786 0002936 261.9177  98.1649 14.98326642 60165,6950.203,96.107,574.109,570.028,0.0
55650.0,STARLINK-5494,PAYLOAD,2024-03-16 13:23:53,14.98326222,0.000292,69.9999,207.7107,260.8386,99.2442,-4.1996e-05,-5.94e-06,0.0,0 STARLINK-5494,1 55650U 23021Y   24076.55825817 -.00000594  00000-0 -41996-4 0  9992,2 55650  69.9999 207.7107 0002920 260.8386  99.2442 14.98326222 60470,6950.205,96.107,574.099,570.04,0.0
55650.0,STARLINK-5494,PAYLOAD,2024-03-16 18:12:17,14.98323595,0.0002958,70.0007,207.2069,262.711,97.3712,-6.8097e-05,-9.05e-06,0.0,0 STARLINK-5494,1 55650U 23021Y   24076.75854144 -.00000905  00000-0 -68097-4 0  9996,2 55650  70.0007 207.2069 0002958 262.7110  97.3712 14.98323595 60505,6950.213,96.107,574.134,570.022,0.0
55650.0,STARLINK-5494,PAYLOAD,2024-03-17 11:49:46,14.98329777,0.0003469,70.0,205.3557,275.4034,84.6729,2.8973e-05,2.53e-06,0.0,0 STARLINK-5494,1 55650U 23021Y   24077.49289598  .00000253  00000-0  28973-4 0  9996,2 55650  70.0000 205.3557 0003469 275.4034  84.6729 14.98329777 60317,6950.194,96.107,574.47,569.648,0.0
55650.0,STARLINK-5494,PAYLOAD,2024-03-17 13:25:54,14.98329066,0.0003499,69.9999,205.1871,275.5554,84.5206,2.0754e-05,1.55e-06,0.0,0 STARLINK-5494,1 55650U 23021Y   24077.55965669  .00000155  00000-0  20754-4 0  9993,2 55650  69.9999 205.1871 0003499 275.5554  84.5206 14.98329066 60623,6950.196,96.107,574.493,569.629,0.0
55650.0,STARLINK-5494,PAYLOAD,2024-03-17 18:14:17,14.98335856,0.0003155,70.0006,204.6834,269.5107,90.569,9.259e-05,1.012e-05,0.0,0 STARLINK-5494,1 55650U 23021Y   24077.75992959  .00001012  00000-0  92590-4 0  9997,2 55650  70.0006 204.6834 0003155 269.5107  90.5690 14.98335856 60352,6950.175,96.107,574.233,569.847,0.0
55650.0,STARLINK-5494,PAYLOAD,2024-03-18 11:51:47,14.98326666,0.0002987,70.001,202.8316,267.8136,92.2681,7.3715e-05,7.87e-06,0.0,0 STARLINK-5494,1 55650U 23021Y   24078.49429527  .00000787  00000-0  73715-4 0  9991,2 55650  70.0010 202.8316 0002987 267.8136  92.2681 14.98326666 60467,6950.203,96.107,574.144,569.992,0.0
55650.0,STARLINK-5494,PAYLOAD,2024-03-18 18:16:19,14.98330747,0.0002924,70.0011,202.1581,266.6566,93.4259,0.00011465,1.275e-05,0.0,0 STARLINK-5494,1 55650U 23021Y   24078.76133152  .00001275  00000-0  11465-3 0  9993,2 55650  70.0011 202.1581 0002924 266.6566  93.4259 14.98330747 60807,6950.191,96.107,574.088,570.023,0.0
55650.0,STARLINK-5494,PAYLOAD,2024-03-19 11:53:47,14.98353718,0.0002848,70.0014,200.3062,268.756,91.3272,-0.00028579,-3.503e-05,0.0,0 STARLINK-5494,1 55650U 23021Y   24079.49568734 -.00003503  00000-0 -28579-3 0  9994,2 55650  70.0014 200.3062 0002848 268.7560  91.3272 14.98353718 60913,6950.12,96.105,573.964,570.005,0.0
55650.0,STARLINK-5494,PAYLOAD,2024-03-19 18:18:19,14.98342038,0.0002827,70.0014,199.6323,271.324,88.7595,9.477e-05,1.038e-05,0.0,0 STARLINK-5494,1 55650U 23021Y   24079.76272229  .00001038  00000-0  94770-4 0  9991,2 55650  70.0014 199.6323 0002827 271.3240  88.7595 14.98342038 60657,6950.156,96.106,573.985,570.056,0.0
55650.0,STARLINK-5494,PAYLOAD,2024-03-20 10:19:41,14.98323787,0.0002889,70.001,197.9493,273.7305,86.3523,-0.0001055,-1.351e-05,0.0,0 STARLINK-5494,1 55650U 23021Y   24080.43033917 -.00001351  00000-0 -10550-3 0  9999,2 55650  70.0010 197.9493 0002889 273.7305  86.3523 14.98323787 60754,6950.212,96.107,574.085,570.069,0.0
55650.0,STARLINK-5494,PAYLOAD,2024-03-20 11:55:49,14.98323137,0.0002953,70.0011,197.7812,274.9992,85.083,-0.00010886,-1.391e-05,0.0,0 STARLINK-5494,1 55650U 23021Y   24080.49710001 -.00001391  00000-0 -10886-3 0  9997,2 55650  70.0011 197.7812 0002953 274.9992  85.0830 14.98323137 61066,6950.214,96.107,574.132,570.027,0.0
55650.0,STARLINK-5494,PAYLOAD,2024-03-20 16:44:13,14.98323661,0.0002945,70.001,197.276,275.3069,84.7754,-9.2117e-05,-1.192e-05,0.0,0 STARLINK-5494,1 55650U 23021Y   24080.69737998 -.00001192  00000-0 -92117-4 0  9990,2 55650  70.0010 197.2760 0002945 275.3069  84.7754 14.98323661 61099,6950.212,96.107,574.124,570.031,0.0
55650.0,STARLINK-5494,PAYLOAD,2024-03-21 11:57:49,14.98333268,0.0003085,70.0008,195.2567,270.8789,89.2017,-4.3198e-05,-6.08e-06,0.0,0 STARLINK-5494,1 55650U 23021Y   24081.49849308 -.00000608  00000-0 -43198-4 0  9994,2 55650  70.0008 195.2567 0003085 270.8789  89.2017 14.98333268 60910,6950.183,96.107,574.192,569.904,0.0
55650.0,STARLINK-5494,PAYLOAD,2024-03-21 18:22:21,14.98344195,0.0002941,70.0008,194.5835,268.6626,91.4197,7.084e-05,7.53e-06,0.0,0 STARLINK-5494,1 55650U 23021Y   24081.76552175  .00000753  00000-0  70840-4 0  9990,2 55650  70.0008 194.5835 0002941 268.6626  91.4197 14.98344195 60954,6950.149,96.106,574.058,569.97,0.0
55650.0,STARLINK-5494,PAYLOAD,2024-03-22 11:59:50,14.98332335,0.0002726,70.0014,192.733,260.9143,99.1708,0.00015021,1.7e-05,0.0,0 STARLINK-5494,1 55650U 23021Y   24082.49988473  .00001700  00000-0  15021-3 0  9997,2 55650  70.0014 192.7330 0002726 260.9143  99.1708 14.98332335 61060,6950.186,96.107,573.945,570.156,0.0
55650.0,STARLINK-5494,PAYLOAD,2024-03-22 13:35:58,14.98333218,0.0002683,70.0016,192.565,259.7359,100.3498,0.00016402,1.865e-05,0.0,0 STARLINK-5494,1 55650U 23021Y   24082.56664365  .00001865  00000-0  16402-3 0  9992,2 55650  70.0016 192.5650 0002683 259.7359 100.3498 14.98333218 61378,6950.183,96.107,573.913,570.183,0.0
55650.0,STARLINK-5494,PAYLOAD,2024-03-22 16:48:13,14.98336155,0.0002718,70.0015,192.2267,260.3666,99.7187,0.00017192,1.959e-05,0.0,0 STARLINK-5494,1 55650U 23021Y   24082.70016100  .00001959  00000-0  17192-3 0  9997,2 55650  70.0015 192.2267 0002718 260.3666  99.7187 14.98336155 61397,6950.174,96.107,573.928,570.15,0.0
55650.0,STARLINK-5494,PAYLOAD,2024-03-23 13:38:00,14.98317903,0.0002524,70.0022,190.0418,250.6268,109.4619,-0.00022215,-2.742e-05,0.0,0 STARLINK-5494,1 55650U 23021Y   24083.56806467 -.00002742  00000-0 -22215-3 0  9990,2 55650  70.0022 190.0418 0002524 250.6268 109.4619 14.98317903 61225,6950.23,96.108,573.85,570.341,0.0
55650.0,STARLINK-5494,PAYLOAD,2024-03-23 16:50:16,14.98329407,0.0002446,70.0019,189.7044,260.805,99.2833,-8.8811e-05,-1.152e-05,0.0,0 STARLINK-5494,1 55650U 23021Y   24083.70157527 -.00001152  00000-0 -88811-4 0  9991,2 55650  70.0019 189.7044 0002446 260.8050  99.2833 14.98329407 61244,6950.195,96.107,573.76,570.36,0.0
55650.0,STARLINK-5494,PAYLOAD,2024-03-24 13:39:59,14.9834136,0.0002387,70.0019,187.5124,267.1778,92.9108,5.2159e-05,5.3e-06,0.0,0 STARLINK-5494,1 55650U 23021Y   24084.56944100  .00000530  00000-0  52159-4 0  9990,2 55650  70.0019 187.5124 0002387 267.1778  92.9108 14.98341360 61371,6950.158,96.106,573.682,570.364,0.0
55650.0,STARLINK-5494,PAYLOAD,2024-03-24 16:52:14,14.98355457,0.0002597,70.0014,187.1779,271.9374,88.1488,0.00019966,2.292e-05,0.0,0 STARLINK-5494,1 55650U 23021Y   24084.70294717  .00002292  00000-0  19966-3 0  9993,2 55650  70.0014 187.1779 0002597 271.9374  88.1488 14.98355457 61398,6950.114,96.105,573.784,570.174,0.0
55650.0,STARLINK-5494,PAYLOAD,2024-03-25 05:41:21,14.98315701,0.0002862,70.0012,185.8326,275.1679,84.9153,6.1593e-05,6.42e-06,0.0,0 STARLINK-5494,1 55650U 23021Y   24085.23705408  .00000642  00000-0  61593-4 0  9997,2 55650  70.0012 185.8326 0002862 275.1679  84.9153 14.98315701 61478,6950.237,96.108,574.091,570.113,0.0
55650.0,STARLINK-5494,PAYLOAD,2024-03-25 16:54:17,14.98321265,0.0002771,70.0009,184.6525,271.2254,88.8588,0.00013285,1.492e-05,0.0,0 STARLINK-5494,1 55650U 23021Y   24085.70437162  .00001492  00000-0  13285-3 0  9996,2 55650  70.0009 184.6525 0002771 271.2254  88.8588 14.98321265 61542,6950.22,96.108,574.011,570.159,0.0
55650.0,STARLINK-5494,PAYLOAD,2024-03-26 13:44:01,14.98352365,0.0002073,70.0018,182.4663,268.4945,91.5977,8.0155e-05,8.64e-06,0.0,0 STARLINK-5494,1 55650U 23021Y   24086.57223792  .00000864  00000-0  80155-4 0  9997,2 55650  70.0018 182.4663 0002073 268.4945  91.5977 14.98352365 61673,6950.124,96.106,573.429,570.548,0.0
